STARLINK-5200           
1 54103U 22136BE  26051.17438384  .00000439  00000+0  45689-4 0  9990
2 54103  53.2182  32.5346 0001311  95.7693 264.3449 15.08834333184625
STARLINK-5203           
1 54104U 22136BF  26051.28429495  .00001192  00000+0  92978-4 0  9996
2 54104  53.2192  16.8155 0001380  99.1636 260.9513 15.08839232184853
STARLINK-5290           
1 54157U 22141A   26051.10728033  .00000192  00000+0  30126-4 0  9997
2 54157  53.2164  93.0050 0001441  85.9152 274.2004 15.08839603183062
STARLINK-5297           
1 54158U 22141B   26051.12476184  .00000481  00000+0  48303-4 0  9994
2 54158  53.2164  93.1095 0001612  80.0282 280.0892 15.08828380183063
STARLINK-5294           
1 54159U 22141C   26051.12106625 -.00000449  00000+0 -10104-4 0  9999
2 54159  53.2164  93.0923 0001426  92.1384 267.9771 15.08833915183063
STARLINK-5233           
1 54160U 22141D   26051.23374696  .00000871  00000+0  72819-4 0  9996
2 54160  53.2178  47.4503 0001306  90.7551 269.3590 15.08837843183715
STARLINK-5269           
1 54161U 22141E   26050.39337351 -.00000920  00000+0 -39699-4 0  9996
2 54161  53.2176  96.3658 0002106 160.7567 199.3505 15.08843328182950
STARLINK-5273           
1 54162U 22141F   26051.11368840  .00000344  00000+0  39703-4 0  9999
2 54162  53.2158  93.0380 0001348  81.6397 278.4748 15.08842514183063
STARLINK-5161           
1 54163U 22141G   26051.05943230 -.00002890  00000+0 -16357-3 0  9994
2 54163  53.2168  83.4338 0001211 115.0704 245.0414 15.08841133183194
STARLINK-5278           
1 54164U 22141H   26050.59943964  .00001117  00000+0  88271-4 0  9991
2 54164  53.2166  85.5388 0001265  94.9886 265.1250 15.08821710183129
STARLINK-5279           
1 54165U 22141J   26051.11000743 -.00001939  00000+0 -10378-3 0  9996
2 54165  53.2168  93.0157 0001036  62.4834 297.6264 15.08846355183069
STARLINK-5280           
1 54166U 22141K   26050.39334659  .00001647  00000+0  12154-3 0  9990
2 54166  53.2169  86.3855 0001244  87.4361 272.6773 15.08837999183099
STARLINK-5243           
1 54167U 22141L   26051.09158332  .00001361  00000+0  10357-3 0  9997
2 54167  53.2170  92.9026 0001205  98.1845 261.9284 15.08837132183062
STARLINK-5245           
1 54168U 22141M   26050.32343969 -.00001935  00000+0 -10357-3 0  9994
2 54168  53.2181  86.6551 0001456 100.9951 259.1205 15.08817326183083
STARLINK-5282           
1 54169U 22141N   26050.27183433  .00000774  00000+0  66689-4 0  9995
2 54169  53.2164  86.3499 0001383 100.8496 259.2652 15.08838603183083
STARLINK-5155           
1 54170U 22141P   26051.11461713 -.00000035  00000+0  15877-4 0  9995
2 54170  53.2174  83.0667 0001375 102.3150 257.7996 15.08832620183203
