[{"OBJECT_NAME":"STARLINK-5200","OBJECT_ID":"2022-136BE","EPOCH":"2026-02-20T04:11:06.763776","MEAN_MOTION":15.08834333,"ECCENTRICITY":0.00013119,"INCLINATION":53.2182,"RA_OF_ASC_NODE":32.5346,"ARG_OF_PERICENTER":95.7693,"MEAN_ANOMALY":264.3449,"EPHEMERIS_TYPE":0,"CLASSIFICATION_TYPE":"U","NORAD_CAT_ID":54103,"ELEMENT_SET_NO":999,"REV_AT_EPOCH":18462,"BSTAR":4.5689485e-5,"MEAN_MOTION_DOT":4.39e-6,"MEAN_MOTION_DDOT":0},{"OBJECT_NAME":"STARLINK-5203","OBJECT_ID":"2022-136BF","EPOCH":"2026-02-20T06:49:23.083680","MEAN_MOTION":15.08839232,"ECCENTRICITY":0.00013801,"INCLINATION":53.2192,"RA_OF_ASC_NODE":16.8155,"ARG_OF_PERICENTER":99.1636,"MEAN_ANOMALY":260.9513,"EPHEMERIS_TYPE":0,"CLASSIFICATION_TYPE":"U","NORAD_CAT_ID":54104,"ELEMENT_SET_NO":999,"REV_AT_EPOCH":18485,"BSTAR":9.2977668e-5,"MEAN_MOTION_DOT":1.192e-5,"MEAN_MOTION_DDOT":0},{"OBJECT_NAME":"STARLINK-5290","OBJECT_ID":"2022-141A","EPOCH":"2026-02-20T02:34:29.020512","MEAN_MOTION":15.08839603,"ECCENTRICITY":0.00014416,"INCLINATION":53.2164,"RA_OF_ASC_NODE":93.005,"ARG_OF_PERICENTER":85.9152,"MEAN_ANOMALY":274.2004,"EPHEMERIS_TYPE":0,"CLASSIFICATION_TYPE":"U","NORAD_CAT_ID":54157,"ELEMENT_SET_NO":999,"REV_AT_EPOCH":18306,"BSTAR":3.0126007e-5,"MEAN_MOTION_DOT":1.92e-6,"MEAN_MOTION_DDOT":0},{"OBJECT_NAME":"STARLINK-5297","OBJECT_ID":"2022-141B","EPOCH":"2026-02-20T02:59:39.422976","MEAN_MOTION":15.0882838,"ECCENTRICITY":0.00016125,"INCLINATION":53.2164,"RA_OF_ASC_NODE":93.1095,"ARG_OF_PERICENTER":80.0282,"MEAN_ANOMALY":280.0892,"EPHEMERIS_TYPE":0,"CLASSIFICATION_TYPE":"U","NORAD_CAT_ID":54158,"ELEMENT_SET_NO":999,"REV_AT_EPOCH":18306,"BSTAR":4.830272e-5,"MEAN_MOTION_DOT":4.81e-6,"MEAN_MOTION_DDOT":0},{"OBJECT_NAME":"STARLINK-5294","OBJECT_ID":"2022-141C","EPOCH":"2026-02-20T02:54:20.124000","MEAN_MOTION":15.08833915,"ECCENTRICITY":0.00014264,"INCLINATION":53.2164,"RA_OF_ASC_NODE":93.0923,"ARG_OF_PERICENTER":92.1384,"MEAN_ANOMALY":267.9771,"EPHEMERIS_TYPE":0,"CLASSIFICATION_TYPE":"U","NORAD_CAT_ID":54159,"ELEMENT_SET_NO":999,"REV_AT_EPOCH":18306,"BSTAR":-1.0103937e-5,"MEAN_MOTION_DOT":-4.49e-6,"MEAN_MOTION_DDOT":0},{"OBJECT_NAME":"STARLINK-5233","OBJECT_ID":"2022-141D","EPOCH":"2026-02-20T05:36:35.737344","MEAN_MOTION":15.08837843,"ECCENTRICITY":0.00013061,"INCLINATION":53.2178,"RA_OF_ASC_NODE":47.4503,"ARG_OF_PERICENTER":90.7551,"MEAN_ANOMALY":269.359,"EPHEMERIS_TYPE":0,"CLASSIFICATION_TYPE":"U","NORAD_CAT_ID":54160,"ELEMENT_SET_NO":999,"REV_AT_EPOCH":18371,"BSTAR":7.281896e-5,"MEAN_MOTION_DOT":8.71e-6,"MEAN_MOTION_DDOT":0},{"OBJECT_NAME":"STARLINK-5269","OBJECT_ID":"2022-141E","EPOCH":"2026-02-19T09:26:27.471264","MEAN_MOTION":15.08843328,"ECCENTRICITY":0.00021066,"INCLINATION":53.2176,"RA_OF_ASC_NODE":96.3658,"ARG_OF_PERICENTER":160.7567,"MEAN_ANOMALY":199.3505,"EPHEMERIS_TYPE":0,"CLASSIFICATION_TYPE":"U","NORAD_CAT_ID":54161,"ELEMENT_SET_NO":999,"REV_AT_EPOCH":18295,"BSTAR":-3.9699235e-5,"MEAN_MOTION_DOT":-9.2e-6,"MEAN_MOTION_DDOT":0},{"OBJECT_NAME":"STARLINK-5273","OBJECT_ID":"2022-141F","EPOCH":"2026-02-20T02:43:42.677760","MEAN_MOTION":15.08842514,"ECCENTRICITY":0.00013482,"INCLINATION":53.2158,"RA_OF_ASC_NODE":93.038,"ARG_OF_PERICENTER":81.6397,"MEAN_ANOMALY":278.4748,"EPHEMERIS_TYPE":0,"CLASSIFICATION_TYPE":"U","NORAD_CAT_ID":54162,"ELEMENT_SET_NO":999,"REV_AT_EPOCH":18306,"BSTAR":3.97031e-5,"MEAN_MOTION_DOT":3.44e-6,"MEAN_MOTION_DDOT":0},{"OBJECT_NAME":"STARLINK-5161","OBJECT_ID":"2022-141G","EPOCH":"2026-02-20T01:25:34.950720","MEAN_MOTION":15.08841133,"ECCENTRICITY":0.00012114,"INCLINATION":53.2168,"RA_OF_ASC_NODE":83.4338,"ARG_OF_PERICENTER":115.0704,"MEAN_ANOMALY":245.0414,"EPHEMERIS_TYPE":0,"CLASSIFICATION_TYPE":"U","NORAD_CAT_ID":54163,"ELEMENT_SET_NO":999,"REV_AT_EPOCH":18319,"BSTAR":-0.00016357242,"MEAN_MOTION_DOT":-2.89e-5,"MEAN_MOTION_DDOT":0},{"OBJECT_NAME":"STARLINK-5278","OBJECT_ID":"2022-141H","EPOCH":"2026-02-19T14:23:11.584896","MEAN_MOTION":15.0882171,"ECCENTRICITY":0.0001265,"INCLINATION":53.2166,"RA_OF_ASC_NODE":85.5388,"ARG_OF_PERICENTER":94.9886,"MEAN_ANOMALY":265.125,"EPHEMERIS_TYPE":0,"CLASSIFICATION_TYPE":"U","NORAD_CAT_ID":54164,"ELEMENT_SET_NO":999,"REV_AT_EPOCH":18312,"BSTAR":8.8271e-5,"MEAN_MOTION_DOT":1.117e-5,"MEAN_MOTION_DDOT":0},{"OBJECT_NAME":"STARLINK-5279","OBJECT_ID":"2022-141J","EPOCH":"2026-02-20T02:38:24.641952","MEAN_MOTION":15.08846355,"ECCENTRICITY":0.00010367,"INCLINATION":53.2168,"RA_OF_ASC_NODE":93.0157,"ARG_OF_PERICENTER":62.4834,"MEAN_ANOMALY":297.6264,"EPHEMERIS_TYPE":0,"CLASSIFICATION_TYPE":"U","NORAD_CAT_ID":54165,"ELEMENT_SET_NO":999,"REV_AT_EPOCH":18306,"BSTAR":-0.00010378101,"MEAN_MOTION_DOT":-1.939e-5,"MEAN_MOTION_DDOT":0},{"OBJECT_NAME":"STARLINK-5280","OBJECT_ID":"2022-141K","EPOCH":"2026-02-19T09:26:25.145376","MEAN_MOTION":15.08837999,"ECCENTRICITY":0.00012441,"INCLINATION":53.2169,"RA_OF_ASC_NODE":86.3855,"ARG_OF_PERICENTER":87.4361,"MEAN_ANOMALY":272.6773,"EPHEMERIS_TYPE":0,"CLASSIFICATION_TYPE":"U","NORAD_CAT_ID":54166,"ELEMENT_SET_NO":999,"REV_AT_EPOCH":18309,"BSTAR":0.00012154151,"MEAN_MOTION_DOT":1.647e-5,"MEAN_MOTION_DDOT":0},{"OBJECT_NAME":"STARLINK-5243","OBJECT_ID":"2022-141L","EPOCH":"2026-02-20T02:11:52.798848","MEAN_MOTION":15.08837132,"ECCENTRICITY":0.00012051,"INCLINATION":53.217,"RA_OF_ASC_NODE":92.9026,"ARG_OF_PERICENTER":98.1845,"MEAN_ANOMALY":261.9284,"EPHEMERIS_TYPE":0,"CLASSIFICATION_TYPE":"U","NORAD_CAT_ID":54167,"ELEMENT_SET_NO":999,"REV_AT_EPOCH":18306,"BSTAR":0.00010356886,"MEAN_MOTION_DOT":1.361e-5,"MEAN_MOTION_DDOT":0},{"OBJECT_NAME":"STARLINK-5245","OBJECT_ID":"2022-141M","EPOCH":"2026-02-19T07:45:45.189216","MEAN_MOTION":15.08817326,"ECCENTRICITY":0.00014568,"INCLINATION":53.2181,"RA_OF_ASC_NODE":86.6551,"ARG_OF_PERICENTER":100.9951,"MEAN_ANOMALY":259.1205,"EPHEMERIS_TYPE":0,"CLASSIFICATION_TYPE":"U","NORAD_CAT_ID":54168,"ELEMENT_SET_NO":999,"REV_AT_EPOCH":18308,"BSTAR":-0.00010356772,"MEAN_MOTION_DOT":-1.935e-5,"MEAN_MOTION_DDOT":0},{"OBJECT_NAME":"STARLINK-5282","OBJECT_ID":"2022-141N","EPOCH":"2026-02-19T06:31:26.486112","MEAN_MOTION":15.08838603,"ECCENTRICITY":0.0001383,"INCLINATION":53.2164,"RA_OF_ASC_NODE":86.3499,"ARG_OF_PERICENTER":100.8496,"MEAN_ANOMALY":259.2652,"EPHEMERIS_TYPE":0,"CLASSIFICATION_TYPE":"U","NORAD_CAT_ID":54169,"ELEMENT_SET_NO":999,"REV_AT_EPOCH":18308,"BSTAR":6.6689e-5,"MEAN_MOTION_DOT":7.74e-6,"MEAN_MOTION_DDOT":0},{"OBJECT_NAME":"STARLINK-5155","OBJECT_ID":"2022-141P","EPOCH":"2026-02-20T02:45:02.920032","MEAN_MOTION":15.0883262,"ECCENTRICITY":0.00013754,"INCLINATION":53.2174,"RA_OF_ASC_NODE":83.0667,"ARG_OF_PERICENTER":102.315,"MEAN_ANOMALY":257.7996,"EPHEMERIS_TYPE":0,"CLASSIFICATION_TYPE":"U","NORAD_CAT_ID":54170,"ELEMENT_SET_NO":999,"REV_AT_EPOCH":18320,"BSTAR":1.5877229e-5,"MEAN_MOTION_DOT":-3.5e-7,"MEAN_MOTION_DDOT":0}]
